FLOCK 4BE-17            
1 60492U 24149AA  26196.15760895  .00009154  00000+0  22721-3 0  9991
2 60492  97.3774 279.7615 0004423 146.8576 213.2948 15.40569636106569
FLOCK 4BE-22            
1 60494U 24149AC  26196.17869588  .00009655  00000+0  22856-3 0  9999
2 60494  97.3736 280.0195 0004701 154.0714 206.0769 15.41985760106619
FLOCK 4BE-34            
1 60495U 24149AD  26196.19625887  .00009716  00000+0  23026-3 0  9992
2 60495  97.3783 280.8775 0004946 161.2158 198.9273 15.41951345106641
FLOCK 4BE-32            
1 60497U 24149AF  26196.21031851  .00010393  00000+0  23700-3 0  9991
2 60497  97.3719 280.4576 0004961 158.9602 201.1851 15.43085754106655
FLOCK 4BE-11            
1 60501U 24149AK  26196.19033214  .00011062  00000+0  24552-3 0  9999
2 60501  97.3700 280.6940 0004914 158.2549 201.8909 15.43877499106677
FLOCK 4BE-24            
1 60505U 24149AP  26196.17402388  .00012265  00000+0  26994-3 0  9991
2 60505  97.3713 280.9459 0005176 170.2975 189.8374 15.44100532106681
FLOCK 4BE-29            
1 60509U 24149AT  26196.16499001  .00027638  00000+0  57731-3 0  9995
2 60509  97.3814 282.4796 0003465 176.3827 183.7448 15.45476733106731
FLOCK 4BE-2             
1 60511U 24149AV  26195.80726923  .00040514  00000+0  58456-3 0  9997
2 60511  97.3835 283.9535 0005328 174.8073 185.3238 15.55865186106796
FLOCK 4BE-13            
1 60512U 24149AW  26196.18501464  .00008753  00000+0  20310-3 0  9998
2 60512  97.3723 280.9005 0005089 155.7062 204.4426 15.42616506106688
FLOCK 4BE-27            
1 60513U 24149AX  26196.16611547  .00005649  00000+0  16917-3 0  9990
2 60513  97.3828 278.0381 0004038 182.0101 178.1126 15.34917324106430
FLOCK 4BE-9             
1 60514U 24149AY  26196.13834141  .00010371  00000+0  24853-3 0  9991
2 60514  97.3793 280.6959 0003660 171.0793 189.0520 15.41598779106624
FLOCK 4BE-6             
1 60516U 24149BA  26196.18978461  .00008651  00000+0  21665-3 0  9998
2 60516  97.3789 280.0518 0004367 172.8322 187.2988 15.40315308106585
FLOCK 4BE-14            
1 60517U 24149BB  26196.21161058  .00009777  00000+0  23241-3 0  9991
2 60517  97.3695 280.2372 0005378 176.8862 183.2419 15.41854616106641
FLOCK 4BE-1             
1 60518U 24149BC  26196.13312968  .00011274  00000+0  25330-3 0  9997
2 60518  97.3782 281.5367 0004924 176.2945 183.8340 15.43510067106683
FLOCK 4BE-28            
1 60519U 24149BD  26196.16834047  .00027446  00000+0  55747-3 0  9991
2 60519  97.3749 282.3881 0005160 175.7144 184.4150 15.46290681106760
FLOCK 4BE-5             
1 60559U 24149CV  26196.15009307  .00009250  00000+0  22602-3 0  9994
2 60559  97.3845 280.4332 0004055 171.5004 188.6312 15.41042056106584
