{"fetched_at":"2026-07-15T17:46:48.171Z","source":"https://celestrak.org/NORAD/elements/gp.php?GROUP=planet&FORMAT=JSON","constellation":"superdove","records":[{"OBJECT_NAME":"FLOCK 4BE-17","OBJECT_ID":"2024-149AA","EPOCH":"2026-07-15T03:46:57.413280","CLASSIFICATION_TYPE":"U","MEAN_MOTION":15.40569636,"ECCENTRICITY":0.0004423,"INCLINATION":97.3774,"RA_OF_ASC_NODE":279.7615,"ARG_OF_PERICENTER":146.8576,"MEAN_ANOMALY":213.2948,"EPHEMERIS_TYPE":0,"NORAD_CAT_ID":60492,"ELEMENT_SET_NO":999,"REV_AT_EPOCH":10656,"BSTAR":0.00022721,"MEAN_MOTION_DOT":0.00009154,"MEAN_MOTION_DDOT":0},{"OBJECT_NAME":"FLOCK 4BE-22","OBJECT_ID":"2024-149AC","EPOCH":"2026-07-15T04:17:19.324032","CLASSIFICATION_TYPE":"U","MEAN_MOTION":15.4198576,"ECCENTRICITY":0.0004701,"INCLINATION":97.3736,"RA_OF_ASC_NODE":280.0195,"ARG_OF_PERICENTER":154.0714,"MEAN_ANOMALY":206.0769,"EPHEMERIS_TYPE":0,"NORAD_CAT_ID":60494,"ELEMENT_SET_NO":999,"REV_AT_EPOCH":10661,"BSTAR":0.00022856,"MEAN_MOTION_DOT":0.00009655,"MEAN_MOTION_DDOT":0},{"OBJECT_NAME":"FLOCK 4BE-34","OBJECT_ID":"2024-149AD","EPOCH":"2026-07-15T04:42:36.766368","CLASSIFICATION_TYPE":"U","MEAN_MOTION":15.41951345,"ECCENTRICITY":0.0004946,"INCLINATION":97.3783,"RA_OF_ASC_NODE":280.8775,"ARG_OF_PERICENTER":161.2158,"MEAN_ANOMALY":198.9273,"EPHEMERIS_TYPE":0,"NORAD_CAT_ID":60495,"ELEMENT_SET_NO":999,"REV_AT_EPOCH":10664,"BSTAR":0.00023026,"MEAN_MOTION_DOT":0.00009716,"MEAN_MOTION_DDOT":0},{"OBJECT_NAME":"FLOCK 4BE-32","OBJECT_ID":"2024-149AF","EPOCH":"2026-07-15T05:02:51.519264","CLASSIFICATION_TYPE":"U","MEAN_MOTION":15.43085754,"ECCENTRICITY":0.0004961,"INCLINATION":97.3719,"RA_OF_ASC_NODE":280.4576,"ARG_OF_PERICENTER":158.9602,"MEAN_ANOMALY":201.1851,"EPHEMERIS_TYPE":0,"NORAD_CAT_ID":60497,"ELEMENT_SET_NO":999,"REV_AT_EPOCH":10665,"BSTAR":0.000237,"MEAN_MOTION_DOT":0.00010393,"MEAN_MOTION_DDOT":0},{"OBJECT_NAME":"FLOCK 4BE-11","OBJECT_ID":"2024-149AK","EPOCH":"2026-07-15T04:34:04.696896","CLASSIFICATION_TYPE":"U","MEAN_MOTION":15.43877499,"ECCENTRICITY":0.0004914,"INCLINATION":97.37,"RA_OF_ASC_NODE":280.694,"ARG_OF_PERICENTER":158.2549,"MEAN_ANOMALY":201.8909,"EPHEMERIS_TYPE":0,"NORAD_CAT_ID":60501,"ELEMENT_SET_NO":999,"REV_AT_EPOCH":10667,"BSTAR":0.00024552,"MEAN_MOTION_DOT":0.00011062,"MEAN_MOTION_DDOT":0},{"OBJECT_NAME":"FLOCK 4BE-24","OBJECT_ID":"2024-149AP","EPOCH":"2026-07-15T04:10:35.663232","CLASSIFICATION_TYPE":"U","MEAN_MOTION":15.44100532,"ECCENTRICITY":0.0005176,"INCLINATION":97.3713,"RA_OF_ASC_NODE":280.9459,"ARG_OF_PERICENTER":170.2975,"MEAN_ANOMALY":189.8374,"EPHEMERIS_TYPE":0,"NORAD_CAT_ID":60505,"ELEMENT_SET_NO":999,"REV_AT_EPOCH":10668,"BSTAR":0.00026994,"MEAN_MOTION_DOT":0.00012265,"MEAN_MOTION_DDOT":0},{"OBJECT_NAME":"FLOCK 4BE-29","OBJECT_ID":"2024-149AT","EPOCH":"2026-07-15T03:57:35.136864","CLASSIFICATION_TYPE":"U","MEAN_MOTION":15.45476733,"ECCENTRICITY":0.0003465,"INCLINATION":97.3814,"RA_OF_ASC_NODE":282.4796,"ARG_OF_PERICENTER":176.3827,"MEAN_ANOMALY":183.7448,"EPHEMERIS_TYPE":0,"NORAD_CAT_ID":60509,"ELEMENT_SET_NO":999,"REV_AT_EPOCH":10673,"BSTAR":0.00057731,"MEAN_MOTION_DOT":0.00027638,"MEAN_MOTION_DDOT":0},{"OBJECT_NAME":"FLOCK 4BE-2","OBJECT_ID":"2024-149AV","EPOCH":"2026-07-14T19:22:28.061472","CLASSIFICATION_TYPE":"U","MEAN_MOTION":15.55865186,"ECCENTRICITY":0.00053281,"INCLINATION":97.3835,"RA_OF_ASC_NODE":283.9535,"ARG_OF_PERICENTER":174.8073,"MEAN_ANOMALY":185.3238,"EPHEMERIS_TYPE":0,"NORAD_CAT_ID":60511,"ELEMENT_SET_NO":999,"REV_AT_EPOCH":10679,"BSTAR":0.00058455568,"MEAN_MOTION_DOT":0.00040514,"MEAN_MOTION_DDOT":0},{"OBJECT_NAME":"FLOCK 4BE-13","OBJECT_ID":"2024-149AW","EPOCH":"2026-07-15T04:26:25.264896","CLASSIFICATION_TYPE":"U","MEAN_MOTION":15.42616506,"ECCENTRICITY":0.0005089,"INCLINATION":97.3723,"RA_OF_ASC_NODE":280.9005,"ARG_OF_PERICENTER":155.7062,"MEAN_ANOMALY":204.4426,"EPHEMERIS_TYPE":0,"NORAD_CAT_ID":60512,"ELEMENT_SET_NO":999,"REV_AT_EPOCH":10668,"BSTAR":0.0002031,"MEAN_MOTION_DOT":0.00008753,"MEAN_MOTION_DDOT":0},{"OBJECT_NAME":"FLOCK 4BE-27","OBJECT_ID":"2024-149AX","EPOCH":"2026-07-15T03:59:12.376608","CLASSIFICATION_TYPE":"U","MEAN_MOTION":15.34917324,"ECCENTRICITY":0.0004038,"INCLINATION":97.3828,"RA_OF_ASC_NODE":278.0381,"ARG_OF_PERICENTER":182.0101,"MEAN_ANOMALY":178.1126,"EPHEMERIS_TYPE":0,"NORAD_CAT_ID":60513,"ELEMENT_SET_NO":999,"REV_AT_EPOCH":10643,"BSTAR":0.00016917,"MEAN_MOTION_DOT":0.00005649,"MEAN_MOTION_DDOT":0},{"OBJECT_NAME":"FLOCK 4BE-9","OBJECT_ID":"2024-149AY","EPOCH":"2026-07-15T03:19:12.697824","CLASSIFICATION_TYPE":"U","MEAN_MOTION":15.41598779,"ECCENTRICITY":0.000366,"INCLINATION":97.3793,"RA_OF_ASC_NODE":280.6959,"ARG_OF_PERICENTER":171.0793,"MEAN_ANOMALY":189.052,"EPHEMERIS_TYPE":0,"NORAD_CAT_ID":60514,"ELEMENT_SET_NO":999,"REV_AT_EPOCH":10662,"BSTAR":0.00024853,"MEAN_MOTION_DOT":0.00010371,"MEAN_MOTION_DDOT":0},{"OBJECT_NAME":"FLOCK 4BE-6","OBJECT_ID":"2024-149BA","EPOCH":"2026-07-15T04:33:17.390304","CLASSIFICATION_TYPE":"U","MEAN_MOTION":15.40315308,"ECCENTRICITY":0.0004367,"INCLINATION":97.3789,"RA_OF_ASC_NODE":280.0518,"ARG_OF_PERICENTER":172.8322,"MEAN_ANOMALY":187.2988,"EPHEMERIS_TYPE":0,"NORAD_CAT_ID":60516,"ELEMENT_SET_NO":999,"REV_AT_EPOCH":10658,"BSTAR":0.00021665,"MEAN_MOTION_DOT":0.00008651,"MEAN_MOTION_DDOT":0},{"OBJECT_NAME":"FLOCK 4BE-14","OBJECT_ID":"2024-149BB","EPOCH":"2026-07-15T05:04:43.154112","CLASSIFICATION_TYPE":"U","MEAN_MOTION":15.41854616,"ECCENTRICITY":0.0005378,"INCLINATION":97.3695,"RA_OF_ASC_NODE":280.2372,"ARG_OF_PERICENTER":176.8862,"MEAN_ANOMALY":183.2419,"EPHEMERIS_TYPE":0,"NORAD_CAT_ID":60517,"ELEMENT_SET_NO":999,"REV_AT_EPOCH":10664,"BSTAR":0.00023241,"MEAN_MOTION_DOT":0.00009777,"MEAN_MOTION_DDOT":0},{"OBJECT_NAME":"FLOCK 4BE-1","OBJECT_ID":"2024-149BC","EPOCH":"2026-07-15T03:11:42.404352","CLASSIFICATION_TYPE":"U","MEAN_MOTION":15.43510067,"ECCENTRICITY":0.0004924,"INCLINATION":97.3782,"RA_OF_ASC_NODE":281.5367,"ARG_OF_PERICENTER":176.2945,"MEAN_ANOMALY":183.834,"EPHEMERIS_TYPE":0,"NORAD_CAT_ID":60518,"ELEMENT_SET_NO":999,"REV_AT_EPOCH":10668,"BSTAR":0.0002533,"MEAN_MOTION_DOT":0.00011274,"MEAN_MOTION_DDOT":0},{"OBJECT_NAME":"FLOCK 4BE-28","OBJECT_ID":"2024-149BD","EPOCH":"2026-07-15T04:02:24.616608","CLASSIFICATION_TYPE":"U","MEAN_MOTION":15.46290681,"ECCENTRICITY":0.000516,"INCLINATION":97.3749,"RA_OF_ASC_NODE":282.3881,"ARG_OF_PERICENTER":175.7144,"MEAN_ANOMALY":184.415,"EPHEMERIS_TYPE":0,"NORAD_CAT_ID":60519,"ELEMENT_SET_NO":999,"REV_AT_EPOCH":10676,"BSTAR":0.00055747,"MEAN_MOTION_DOT":0.00027446,"MEAN_MOTION_DDOT":0},{"OBJECT_NAME":"FLOCK 4BE-5","OBJECT_ID":"2024-149CV","EPOCH":"2026-07-15T03:36:08.041248","CLASSIFICATION_TYPE":"U","MEAN_MOTION":15.41042056,"ECCENTRICITY":0.0004055,"INCLINATION":97.3845,"RA_OF_ASC_NODE":280.4332,"ARG_OF_PERICENTER":171.5004,"MEAN_ANOMALY":188.6312,"EPHEMERIS_TYPE":0,"NORAD_CAT_ID":60559,"ELEMENT_SET_NO":999,"REV_AT_EPOCH":10658,"BSTAR":0.00022602,"MEAN_MOTION_DOT":0.0000925,"MEAN_MOTION_DDOT":0}]}
